SL-3 R/B                
1 13403U 82079B   26040.51039919  .00006617  00000+0  26691-3 0  9992
2 13403  81.1446 226.3416 0024163 261.6282  98.2212 15.24384548373409
SL-14 R/B               
1 13553U 82092B   26040.44252672  .00000708  00000+0  76693-4 0  9991
2 13553  82.5705 167.8117 0021267  38.4807  26.0624 14.86635143324735
SL-3 R/B                
1 13819U 83010B   26040.47335006  .00016647  00000+0  34594-3 0  9995
2 13819  81.1026  36.8147 0018022 140.5545 219.7015 15.45350432353589
SL-3 R/B                
1 14208U 83075B   26040.51621397  .00013290  00000+0  35862-3 0  9995
2 14208  97.6136  44.0475 0020988 335.8893  24.1367 15.37690563325827
COSMOS 1536             
1 14699U 84013A   26040.34834581  .00007093  00000+0  29553-3 0  9998
2 14699  82.5467 136.0085 0014842  27.8917 332.3112 15.23446670268301
SL-14 R/B               
1 14820U 84027B   26040.07446332  .00000449  00000+0  48442-4 0  9999
2 14820  82.5397 271.8564 0019439  69.8588 290.4718 14.85948030243387
SL-8 R/B                
1 15483U 85006B   26040.28391020  .00000272  00000+0  98942-4 0  9993
2 15483  74.0471 313.4173 0019511 236.7811 259.6667 14.37769138149940
SL-12 R/B(2)            
1 15772U 85042D   26040.48817492  .00000201  00000+0  11173-3 0  9994
2 15772  71.1088 147.3099 0034874 173.3518 261.6904 14.21974475110381
SL-14 R/B               
1 15945U 85069B   26040.47181265  .00000616  00000+0  66923-4 0  9990
2 15945  82.5241  51.4726 0017254 287.5216  72.4115 14.86399712168648
SL-16 R/B               
1 16182U 85097B   26040.53075588 -.00000127  00000+0 -39853-4 0  9993
2 16182  71.0018 199.8319 0009647 292.5578 134.2321 14.16596252 83245
SL-14 R/B               
1 16496U 86006B   26040.18708732  .00000850  00000+0  87664-4 0  9991
2 16496  82.5265 286.5653 0076879   8.3686 351.8791 14.86776467144974
COSMOS 1743             
1 16719U 86034A   26040.24402410  .00035467  00000+0  49888-3 0  9998
2 16719  82.5328 103.6355 0005017  50.2384 309.9312 15.56490349175828
