CCSDS_OMM_VERS = 2.0
CREATION_DATE  = 
ORIGINATOR     = 

OBJECT_NAME    = SL-3 R/B
OBJECT_ID      = 1982-079B
CENTER_NAME    = EARTH
REF_FRAME      = TEME
TIME_SYSTEM    = UTC
MEAN_ELEMENT_THEORY = SGP/SGP4

EPOCH          = 2026-02-09T12:14:58.490016
MEAN_MOTION    = 15.24384548
ECCENTRICITY   = .0024163
INCLINATION    = 81.1446
RA_OF_ASC_NODE = 226.3416
ARG_OF_PERICENTER = 261.6282
MEAN_ANOMALY   = 98.2212

EPHEMERIS_TYPE = 0
CLASSIFICATION_TYPE = U
NORAD_CAT_ID   = 13403
ELEMENT_SET_NO = 999
REV_AT_EPOCH   = 37340
BSTAR          = .26691E-3
MEAN_MOTION_DOT = .6617E-4
MEAN_MOTION_DDOT = 0

CCSDS_OMM_VERS = 2.0
CREATION_DATE  = 
ORIGINATOR     = 

OBJECT_NAME    = SL-14 R/B
OBJECT_ID      = 1982-092B
CENTER_NAME    = EARTH
REF_FRAME      = TEME
TIME_SYSTEM    = UTC
MEAN_ELEMENT_THEORY = SGP/SGP4

EPOCH          = 2026-02-09T10:37:14.308608
MEAN_MOTION    = 14.86635143
ECCENTRICITY   = .0021267
INCLINATION    = 82.5705
RA_OF_ASC_NODE = 167.8117
ARG_OF_PERICENTER = 38.4807
MEAN_ANOMALY   = 26.0624

EPHEMERIS_TYPE = 0
CLASSIFICATION_TYPE = U
NORAD_CAT_ID   = 13553
ELEMENT_SET_NO = 999
REV_AT_EPOCH   = 32473
BSTAR          = .76693E-4
MEAN_MOTION_DOT = .708E-5
MEAN_MOTION_DDOT = 0

CCSDS_OMM_VERS = 2.0
CREATION_DATE  = 
ORIGINATOR     = 

OBJECT_NAME    = SL-3 R/B
OBJECT_ID      = 1983-010B
CENTER_NAME    = EARTH
REF_FRAME      = TEME
TIME_SYSTEM    = UTC
MEAN_ELEMENT_THEORY = SGP/SGP4

EPOCH          = 2026-02-09T11:21:37.445184
MEAN_MOTION    = 15.45350432
ECCENTRICITY   = .0018022
INCLINATION    = 81.1026
RA_OF_ASC_NODE = 36.8147
ARG_OF_PERICENTER = 140.5545
MEAN_ANOMALY   = 219.7015

EPHEMERIS_TYPE = 0
CLASSIFICATION_TYPE = U
NORAD_CAT_ID   = 13819
ELEMENT_SET_NO = 999
REV_AT_EPOCH   = 35358
BSTAR          = .34594E-3
MEAN_MOTION_DOT = .16647E-3
MEAN_MOTION_DDOT = 0

CCSDS_OMM_VERS = 2.0
CREATION_DATE  = 
ORIGINATOR     = 

OBJECT_NAME    = SL-3 R/B
OBJECT_ID      = 1983-075B
CENTER_NAME    = EARTH
REF_FRAME      = TEME
TIME_SYSTEM    = UTC
MEAN_ELEMENT_THEORY = SGP/SGP4

EPOCH          = 2026-02-09T12:23:20.887008
MEAN_MOTION    = 15.37690563
ECCENTRICITY   = .0020988
INCLINATION    = 97.6136
RA_OF_ASC_NODE = 44.0475
ARG_OF_PERICENTER = 335.8893
MEAN_ANOMALY   = 24.1367

EPHEMERIS_TYPE = 0
CLASSIFICATION_TYPE = U
NORAD_CAT_ID   = 14208
ELEMENT_SET_NO = 999
REV_AT_EPOCH   = 32582
BSTAR          = .35862E-3
MEAN_MOTION_DOT = .1329E-3
MEAN_MOTION_DDOT = 0

CCSDS_OMM_VERS = 2.0
CREATION_DATE  = 
ORIGINATOR     = 

OBJECT_NAME    = COSMOS 1536
OBJECT_ID      = 1984-013A
CENTER_NAME    = EARTH
REF_FRAME      = TEME
TIME_SYSTEM    = UTC
MEAN_ELEMENT_THEORY = SGP/SGP4

EPOCH          = 2026-02-09T08:21:37.077984
MEAN_MOTION    = 15.23446670
ECCENTRICITY   = .0014842
INCLINATION    = 82.5467
RA_OF_ASC_NODE = 136.0085
ARG_OF_PERICENTER = 27.8917
MEAN_ANOMALY   = 332.3112

EPHEMERIS_TYPE = 0
CLASSIFICATION_TYPE = U
NORAD_CAT_ID   = 14699
ELEMENT_SET_NO = 999
REV_AT_EPOCH   = 26830
BSTAR          = .29553E-3
MEAN_MOTION_DOT = .7093E-4
MEAN_MOTION_DDOT = 0

CCSDS_OMM_VERS = 2.0
CREATION_DATE  = 
ORIGINATOR     = 

OBJECT_NAME    = SL-14 R/B
OBJECT_ID      = 1984-027B
CENTER_NAME    = EARTH
REF_FRAME      = TEME
TIME_SYSTEM    = UTC
MEAN_ELEMENT_THEORY = SGP/SGP4

EPOCH          = 2026-02-09T01:47:13.630848
MEAN_MOTION    = 14.85948030
ECCENTRICITY   = .00194394
INCLINATION    = 82.5397
RA_OF_ASC_NODE = 271.8564
ARG_OF_PERICENTER = 69.8588
MEAN_ANOMALY   = 290.4718

EPHEMERIS_TYPE = 0
CLASSIFICATION_TYPE = U
NORAD_CAT_ID   = 14820
ELEMENT_SET_NO = 999
REV_AT_EPOCH   = 24338
BSTAR          = .48441706E-4
MEAN_MOTION_DOT = .449E-5
MEAN_MOTION_DDOT = 0

CCSDS_OMM_VERS = 2.0
CREATION_DATE  = 
ORIGINATOR     = 

OBJECT_NAME    = SL-8 R/B
OBJECT_ID      = 1985-006B
CENTER_NAME    = EARTH
REF_FRAME      = TEME
TIME_SYSTEM    = UTC
MEAN_ELEMENT_THEORY = SGP/SGP4

EPOCH          = 2026-02-09T06:48:49.841280
MEAN_MOTION    = 14.37769138
ECCENTRICITY   = .0019511
INCLINATION    = 74.0471
RA_OF_ASC_NODE = 313.4173
ARG_OF_PERICENTER = 236.7811
MEAN_ANOMALY   = 259.6667

EPHEMERIS_TYPE = 0
CLASSIFICATION_TYPE = U
NORAD_CAT_ID   = 15483
ELEMENT_SET_NO = 999
REV_AT_EPOCH   = 14994
BSTAR          = .98942E-4
MEAN_MOTION_DOT = .272E-5
MEAN_MOTION_DDOT = 0

CCSDS_OMM_VERS = 2.0
CREATION_DATE  = 
ORIGINATOR     = 

OBJECT_NAME    = SL-12 R/B(2)
OBJECT_ID      = 1985-042D
CENTER_NAME    = EARTH
REF_FRAME      = TEME
TIME_SYSTEM    = UTC
MEAN_ELEMENT_THEORY = SGP/SGP4

EPOCH          = 2026-02-09T11:42:58.313088
MEAN_MOTION    = 14.21974475
ECCENTRICITY   = .0034874
INCLINATION    = 71.1088
RA_OF_ASC_NODE = 147.3099
ARG_OF_PERICENTER = 173.3518
MEAN_ANOMALY   = 261.6904

EPHEMERIS_TYPE = 0
CLASSIFICATION_TYPE = U
NORAD_CAT_ID   = 15772
ELEMENT_SET_NO = 999
REV_AT_EPOCH   = 11038
BSTAR          = .11173E-3
MEAN_MOTION_DOT = .201E-5
MEAN_MOTION_DDOT = 0

CCSDS_OMM_VERS = 2.0
CREATION_DATE  = 
ORIGINATOR     = 

OBJECT_NAME    = SL-14 R/B
OBJECT_ID      = 1985-069B
CENTER_NAME    = EARTH
REF_FRAME      = TEME
TIME_SYSTEM    = UTC
MEAN_ELEMENT_THEORY = SGP/SGP4

EPOCH          = 2026-02-09T11:19:24.612960
MEAN_MOTION    = 14.86399712
ECCENTRICITY   = .0017254
INCLINATION    = 82.5241
RA_OF_ASC_NODE = 51.4726
ARG_OF_PERICENTER = 287.5216
MEAN_ANOMALY   = 72.4115

EPHEMERIS_TYPE = 0
CLASSIFICATION_TYPE = U
NORAD_CAT_ID   = 15945
ELEMENT_SET_NO = 999
REV_AT_EPOCH   = 16864
BSTAR          = .66923E-4
MEAN_MOTION_DOT = .616E-5
MEAN_MOTION_DDOT = 0

CCSDS_OMM_VERS = 2.0
CREATION_DATE  = 
ORIGINATOR     = 

OBJECT_NAME    = SL-16 R/B
OBJECT_ID      = 1985-097B
CENTER_NAME    = EARTH
REF_FRAME      = TEME
TIME_SYSTEM    = UTC
MEAN_ELEMENT_THEORY = SGP/SGP4

EPOCH          = 2026-02-09T12:44:17.308032
MEAN_MOTION    = 14.16596252
ECCENTRICITY   = .0009647
INCLINATION    = 71.0018
RA_OF_ASC_NODE = 199.8319
ARG_OF_PERICENTER = 292.5578
MEAN_ANOMALY   = 134.2321

EPHEMERIS_TYPE = 0
CLASSIFICATION_TYPE = U
NORAD_CAT_ID   = 16182
ELEMENT_SET_NO = 999
REV_AT_EPOCH   = 8324
BSTAR          = -.39853E-4
MEAN_MOTION_DOT = -.127E-5
MEAN_MOTION_DDOT = 0

CCSDS_OMM_VERS = 2.0
CREATION_DATE  = 
ORIGINATOR     = 

OBJECT_NAME    = SL-14 R/B
OBJECT_ID      = 1986-006B
CENTER_NAME    = EARTH
REF_FRAME      = TEME
TIME_SYSTEM    = UTC
MEAN_ELEMENT_THEORY = SGP/SGP4

EPOCH          = 2026-02-09T04:29:24.344448
MEAN_MOTION    = 14.86776467
ECCENTRICITY   = .0076879
INCLINATION    = 82.5265
RA_OF_ASC_NODE = 286.5653
ARG_OF_PERICENTER = 8.3686
MEAN_ANOMALY   = 351.8791

EPHEMERIS_TYPE = 0
CLASSIFICATION_TYPE = U
NORAD_CAT_ID   = 16496
ELEMENT_SET_NO = 999
REV_AT_EPOCH   = 14497
BSTAR          = .87664E-4
MEAN_MOTION_DOT = .85E-5
MEAN_MOTION_DDOT = 0

CCSDS_OMM_VERS = 2.0
CREATION_DATE  = 
ORIGINATOR     = 

OBJECT_NAME    = COSMOS 1743
OBJECT_ID      = 1986-034A
CENTER_NAME    = EARTH
REF_FRAME      = TEME
TIME_SYSTEM    = UTC
MEAN_ELEMENT_THEORY = SGP/SGP4

EPOCH          = 2026-02-09T05:51:23.682240
MEAN_MOTION    = 15.56490349
ECCENTRICITY   = .0005017
INCLINATION    = 82.5328
RA_OF_ASC_NODE = 103.6355
ARG_OF_PERICENTER = 50.2384
MEAN_ANOMALY   = 309.9312

EPHEMERIS_TYPE = 0
CLASSIFICATION_TYPE = U
NORAD_CAT_ID   = 16719
ELEMENT_SET_NO = 999
REV_AT_EPOCH   = 17582
BSTAR          = .49888E-3
MEAN_MOTION_DOT = .35467E-3
MEAN_MOTION_DDOT = 0

